[{"OBJECT_NAME":"YAOGAN-30 11A","OBJECT_ID":"2021-065A","EPOCH":"2026-03-09T17:03:27.605952","MEAN_MOTION":15.0211069,"ECCENTRICITY":0.00046738,"INCLINATION":34.9929,"RA_OF_ASC_NODE":159.1721,"ARG_OF_PERICENTER":355.4238,"MEAN_ANOMALY":4.6427,"EPHEMERIS_TYPE":0,"CLASSIFICATION_TYPE":"U","NORAD_CAT_ID":49026,"ELEMENT_SET_NO":999,"REV_AT_EPOCH":25367,"BSTAR":0.00035664483,"MEAN_MOTION_DOT":4.757e-5,"MEAN_MOTION_DDOT":0},{"OBJECT_NAME":"STARLINK-4625","OBJECT_ID":"2022-105AM","EPOCH":"2026-03-09T15:58:26.969952","MEAN_MOTION":15.01261736,"ECCENTRICITY":0.00046582,"INCLINATION":97.6012,"RA_OF_ASC_NODE":310.181,"ARG_OF_PERICENTER":56.8765,"MEAN_ANOMALY":303.2906,"EPHEMERIS_TYPE":0,"CLASSIFICATION_TYPE":"U","NORAD_CAT_ID":53683,"ELEMENT_SET_NO":999,"REV_AT_EPOCH":19323,"BSTAR":-3.288093e-6,"MEAN_MOTION_DOT":-1.01e-6,"MEAN_MOTION_DDOT":0}]
