YAOGAN-30 11A           
1 49026U 21065A   26068.71073618  .00004757  00000+0  35664-3 0  9999
2 49026  34.9929 159.1721 0004674 355.4238   4.6427 15.02110690253677
STARLINK-4625           
1 53683U 22105AM  26068.66558993 -.00000101  00000+0 -32881-5 0  9998
2 53683  97.6012 310.1810 0004658  56.8765 303.2906 15.01261736193239
